AURA                    
1 28376U 04026A   26194.89499045  .00000370  00000+0  84657-4 0  9991
2 28376  98.3430 151.5721 0001291  92.5478 267.5870 14.61366746170114
CAPELLA-11 (ACADIA-1)   
1 57693U 23126A   26194.10121632  .00002203  00000+0  28325-3 0  9991
2 57693  53.0082  72.3940 0002120 123.6112 236.5070 14.84908624155972
CAPELLA-14 (ACADIA-4)   
1 59444U 24066C   26194.24823292  .00006954  00000+0  45541-3 0  9993
2 59444  45.6044 118.0658 0000749  18.4375 341.6537 15.08425491116420
CAPELLA-13 (ACADIA-3)   
1 60419U 24142A   26194.70341032  .00002327  00000+0  27894-3 0  9991
2 60419  53.0057 301.8247 0001344  91.2779 268.8355 14.87654542104350
CAPELLA-15 (ACADIA-5)   
1 60544U 24149CE  26194.80637707  .00002236  00000+0  22368-3 0  9995
2 60544  97.6722 267.0506 0004540   1.1671 358.9559 14.92406856103822
BIOMASS                 
1 63772U 25090A   26194.49092710  .00000537  00000+0  10321-3 0  9999
2 63772  98.0750  21.4211 0001436  96.7848 263.3520 14.67536921 64547
CAPELLA-17 (ACADIA-7)   
1 64583U 25135BH  26194.83790851  .00003095  00000+0  31388-3 0  9997
2 64583  97.7707 308.0665 0004053 255.8212 104.2557 14.91611381 57821
CAPELLA-16 (ACADIA-6)   
1 65318U 25188D   26194.74773573  .00003559  00000+0  33874-3 0  9991
2 65318  97.7379 269.5013 0005668 140.3512 219.8123 14.94038741 47888
CAPELLA-19 (ACADIA-9)   
1 67384U 26004X   26194.85245753  .00002611  00000+0  30011-3 0  9998
2 67384  97.8003 192.7444 0001597  95.7510 264.3888 14.86654776 27234
CAPELLA-18 (ACADIA-8)   
1 67385U 26004Y   26194.86250723  .00000610  00000+0  74785-4 0  9997
2 67385  97.8029 192.9060 0001237 122.6369 237.4966 14.86642766 27247
